{
  "type": "FeatureCollection",
  "features": [
    {
      "type": "Feature",
      "properties": {
        "norad_id": 33860,
        "name": "IRIDIUM 33 DEB",
        "group": "iridium-33-debris",
        "lat": -63.59303716521484,
        "lon": -145.90766057779712,
        "alt_km": 678.5220364319448,
        "timestamp": "2025-12-13T18:50:04.815165+00:00",
        "meta_object_name": "IRIDIUM 33 DEB",
        "meta_object_id": "1997-051AD",
        "meta_epoch": "2025-12-13T03:14:30.132672",
        "meta_mean_motion": 14.67378607,
        "meta_eccentricity": 0.00074226,
        "meta_inclination": 86.384,
        "meta_ra_of_asc_node": 27.0632,
        "meta_arg_of_pericenter": 356.3471,
        "meta_mean_anomaly": 57.6015,
        "meta_ephemeris_type": 0,
        "meta_classification_type": "U",
        "meta_norad_cat_id": 33860,
        "meta_element_set_no": 999,
        "meta_rev_at_epoch": 88728,
        "meta_bstar": 0.0017412882,
        "meta_mean_motion_dot": 9.869e-05,
        "meta_mean_motion_ddot": 0,
        "tle_line1": "1 33860U 97051AD  25347.13507098  .00009869  00000+0  17413-2 0  9995",
        "tle_line2": "2 33860  86.3840  27.0632 0007422 356.3471  57.6015 14.67378607887281"
      },
      "geometry": {
        "type": "Point",
        "coordinates": [
          -145.90766057779712,
          -63.59303716521484
        ]
      }
    },
    {
      "type": "Feature",
      "properties": {
        "norad_id": 33862,
        "name": "IRIDIUM 33 DEB",
        "group": "iridium-33-debris",
        "lat": -73.00392970505344,
        "lon": 25.214489936656634,
        "alt_km": 698.322256725588,
        "timestamp": "2025-12-13T18:50:04.815177+00:00",
        "meta_object_name": "IRIDIUM 33 DEB",
        "meta_object_id": "1997-051AF",
        "meta_epoch": "2025-12-13T04:44:07.482912",
        "meta_mean_motion": 14.69492259,
        "meta_eccentricity": 0.00534134,
        "meta_inclination": 86.4094,
        "meta_ra_of_asc_node": 37.3283,
        "meta_arg_of_pericenter": 67.6393,
        "meta_mean_anomaly": 353.626,
        "meta_ephemeris_type": 0,
        "meta_classification_type": "U",
        "meta_norad_cat_id": 33862,
        "meta_element_set_no": 999,
        "meta_rev_at_epoch": 88830,
        "meta_bstar": 0.0020464006,
        "meta_mean_motion_dot": 0.0001243,
        "meta_mean_motion_ddot": 0,
        "tle_line1": "1 33862U 97051AF  25347.19730883  .00012430  00000+0  20464-2 0  9991",
        "tle_line2": "2 33862  86.4094  37.3283 0053413  67.6393 353.6260 14.69492259888304"
      },
      "geometry": {
        "type": "Point",
        "coordinates": [
          25.214489936656634,
          -73.00392970505344
        ]
      }
    },
    {
      "type": "Feature",
      "properties": {
        "norad_id": 33866,
        "name": "IRIDIUM 33 DEB",
        "group": "iridium-33-debris",
        "lat": -6.974219336775191,
        "lon": -86.9530859833963,
        "alt_km": 739.1098963628701,
        "timestamp": "2025-12-13T18:50:04.815188+00:00",
        "meta_object_name": "IRIDIUM 33 DEB",
        "meta_object_id": "1997-051AK",
        "meta_epoch": "2025-12-13T06:27:14.821920",
        "meta_mean_motion": 14.25279242,
        "meta_eccentricity": 0.01145091,
        "meta_inclination": 86.2997,
        "meta_ra_of_asc_node": 92.8116,
        "meta_arg_of_pericenter": 159.7258,
        "meta_mean_anomaly": 261.3085,
        "meta_ephemeris_type": 0,
        "meta_classification_type": "U",
        "meta_norad_cat_id": 33866,
        "meta_element_set_no": 999,
        "meta_rev_at_epoch": 86818,
        "meta_bstar": 0.0010855955,
        "meta_mean_motion_dot": 2.754e-05,
        "meta_mean_motion_ddot": 0,
        "tle_line1": "1 33866U 97051AK  25347.26892155  .00002754  00000+0  10856-2 0  9996",
        "tle_line2": "2 33866  86.2997  92.8116 0114509 159.7258 261.3085 14.25279242868187"
      },
      "geometry": {
        "type": "Point",
        "coordinates": [
          -86.9530859833963,
          -6.974219336775191
        ]
      }
    },
    {
      "type": "Feature",
      "properties": {
        "norad_id": 33867,
        "name": "IRIDIUM 33 DEB",
        "group": "iridium-33-debris",
        "lat": 39.94161178322877,
        "lon": -7.38533667697263,
        "alt_km": 349.3667281784474,
        "timestamp": "2025-12-13T18:50:04.815200+00:00",
        "meta_object_name": "IRIDIUM 33 DEB",
        "meta_object_id": "1997-051AL",
        "meta_epoch": "2025-12-13T00:17:57.337152",
        "meta_mean_motion": 15.68448649,
        "meta_eccentricity": 0.00133514,
        "meta_inclination": 86.3647,
        "meta_ra_of_asc_node": 349.9645,
        "meta_arg_of_pericenter": 88.5689,
        "meta_mean_anomaly": 271.711,
        "meta_ephemeris_type": 0,
        "meta_classification_type": "U",
        "meta_norad_cat_id": 33867,
        "meta_element_set_no": 999,
        "meta_rev_at_epoch": 89515,
        "meta_bstar": 0.0092270239,
        "meta_mean_motion_dot": 0.01147185,
        "meta_mean_motion_ddot": 0,
        "tle_line1": "1 33867U 97051AL  25347.01246918  .01147185  00000+0  92270-2 0  9999",
        "tle_line2": "2 33867  86.3647 349.9645 0013351  88.5689 271.7110 15.68448649895152"
      },
      "geometry": {
        "type": "Point",
        "coordinates": [
          -7.38533667697263,
          39.94161178322877
        ]
      }
    },
    {
      "type": "Feature",
      "properties": {
        "norad_id": 33870,
        "name": "IRIDIUM 33 DEB",
        "group": "iridium-33-debris",
        "lat": 2.137004353985451,
        "lon": 57.948374278022264,
        "alt_km": 757.1645925185321,
        "timestamp": "2025-12-13T18:50:04.815211+00:00",
        "meta_object_name": "IRIDIUM 33 DEB",
        "meta_object_id": "1997-051AP",
        "meta_epoch": "2025-12-13T05:48:32.308704",
        "meta_mean_motion": 14.4585808,
        "meta_eccentricity": 0.00215266,
        "meta_inclination": 86.3747,
        "meta_ra_of_asc_node": 58.0454,
        "meta_arg_of_pericenter": 176.4535,
        "meta_mean_anomaly": 242.6434,
        "meta_ephemeris_type": 0,
        "meta_classification_type": "U",
        "meta_norad_cat_id": 33870,
        "meta_element_set_no": 999,
        "meta_rev_at_epoch": 88144,
        "meta_bstar": 0.001264841,
        "meta_mean_motion_dot": 4.523e-05,
        "meta_mean_motion_ddot": 0,
        "tle_line1": "1 33870U 97051AP  25347.24204061  .00004523  00000+0  12648-2 0  9999",
        "tle_line2": "2 33870  86.3747  58.0454 0021526 176.4535 242.6434 14.45858080881444"
      },
      "geometry": {
        "type": "Point",
        "coordinates": [
          57.948374278022264,
          2.137004353985451
        ]
      }
    },
    {
      "type": "Feature",
      "properties": {
        "norad_id": 33881,
        "name": "IRIDIUM 33 DEB",
        "group": "iridium-33-debris",
        "lat": -86.06659721745092,
        "lon": 39.48178367624957,
        "alt_km": 719.223343087664,
        "timestamp": "2025-12-13T18:50:04.815221+00:00",
        "meta_object_name": "IRIDIUM 33 DEB",
        "meta_object_id": "1997-051BA",
        "meta_epoch": "2025-12-12T20:44:34.160064",
        "meta_mean_motion": 14.56580115,
        "meta_eccentricity": 0.00614774,
        "meta_inclination": 86.386,
        "meta_ra_of_asc_node": 106.688,
        "meta_arg_of_pericenter": 174.2575,
        "meta_mean_anomaly": 312.8923,
        "meta_ephemeris_type": 0,
        "meta_classification_type": "U",
        "meta_norad_cat_id": 33881,
        "meta_element_set_no": 999,
        "meta_rev_at_epoch": 87502,
        "meta_bstar": 0.0029090171,
        "meta_mean_motion_dot": 0.00013329,
        "meta_mean_motion_ddot": 0,
        "tle_line1": "1 33881U 97051BA  25346.86428426  .00013329  00000+0  29090-2 0  9994",
        "tle_line2": "2 33881  86.3860 106.6880 0061477 174.2575 312.8923 14.56580115875027"
      },
      "geometry": {
        "type": "Point",
        "coordinates": [
          39.48178367624957,
          -86.06659721745092
        ]
      }
    },
    {
      "type": "Feature",
      "properties": {
        "norad_id": 33884,
        "name": "IRIDIUM 33 DEB",
        "group": "iridium-33-debris",
        "lat": -64.00252449835834,
        "lon": 1.868470889127645,
        "alt_km": 638.4072184743382,
        "timestamp": "2025-12-13T18:50:04.815233+00:00",
        "meta_object_name": "IRIDIUM 33 DEB",
        "meta_object_id": "1997-051BD",
        "meta_epoch": "2025-12-13T01:29:50.844192",
        "meta_mean_motion": 14.77439529,
        "meta_eccentricity": 0.00097723,
        "meta_inclination": 86.3705,
        "meta_ra_of_asc_node": 9.673,
        "meta_arg_of_pericenter": 322.5896,
        "meta_mean_anomaly": 93.5713,
        "meta_ephemeris_type": 0,
        "meta_classification_type": "U",
        "meta_norad_cat_id": 33884,
        "meta_element_set_no": 999,
        "meta_rev_at_epoch": 88852,
        "meta_bstar": 0.0019383044,
        "meta_mean_motion_dot": 0.00013847,
        "meta_mean_motion_ddot": 0,
        "tle_line1": "1 33884U 97051BD  25347.06239403  .00013847  00000+0  19383-2 0  9994",
        "tle_line2": "2 33884  86.3705   9.6730 0009772 322.5896  93.5713 14.77439529888522"
      },
      "geometry": {
        "type": "Point",
        "coordinates": [
          1.868470889127645,
          -64.00252449835834
        ]
      }
    }
  ]
}